$$SOE
2461295.500000000, A.D. 2026-Sep-12 00:00:00.0000, -5.154665512663762E+08, -1.023147284810453E+08, -5.705147379245469E+07,
2461302.500000000, A.D. 2026-Sep-19 00:00:00.0000, -5.137803403324739E+08, -1.117319663524602E+08, -5.610586801468187E+07,
2461309.500000000, A.D. 2026-Sep-26 00:00:00.0000, -5.119254084194263E+08, -1.211124816476884E+08, -5.514183270469248E+07,
2461316.500000000, A.D. 2026-Oct-03 00:00:00.0000, -5.099025233498423E+08, -1.304532345662889E+08, -5.415970149039164E+07,
2461323.500000000, A.D. 2026-Oct-10 00:00:00.0000, -5.077125071198466E+08, -1.397512044726396E+08, -5.315981343897769E+07,
2461330.500000000, A.D. 2026-Oct-17 00:00:00.0000, -5.053562354628745E+08, -1.490033908040515E+08, -5.214251291391613E+07,
2461337.500000000, A.D. 2026-Oct-24 00:00:00.0000, -5.028346374071130E+08, -1.582068140602723E+08, -5.110814943855911E+07,
2461344.500000000, A.D. 2026-Oct-31 00:00:00.0000, -5.001486947282171E+08, -1.673585169407140E+08, -5.005707758084774E+07,
2461351.500000000, A.D. 2026-Nov-07 00:00:00.0000, -4.972994409586407E+08, -1.764555655549917E+08, -4.898965688402870E+07,
2461358.500000000, A.D. 2026-Nov-14 00:00:00.0000, -4.942879597529539E+08, -1.854950498190014E+08, -4.790625178910739E+07,
2461365.500000000, A.D. 2026-Nov-21 00:00:00.0000, -4.911153844209083E+08, -1.944740823544902E+08, -4.680723132693695E+07,
2461372.500000000, A.D. 2026-Nov-28 00:00:00.0000, -4.877828996268654E+08, -2.033897989005054E+08, -4.569296873415946E+07,
2461379.500000000, A.D. 2026-Dec-05 00:00:00.0000, -4.842917416374747E+08, -2.122393608932152E+08, -4.456384137860407E+07,
2461386.500000000, A.D. 2026-Dec-12 00:00:00.0000, -4.806431969534702E+08, -2.210199571023969E+08, -4.342023075474799E+07,
2461393.500000000, A.D. 2026-Dec-19 00:00:00.0000, -4.768386012126108E+08, -2.297288043175574E+08, -4.226252237524198E+07,
2461400.500000000, A.D. 2026-Dec-26 00:00:00.0000, -4.728793385061309E+08, -2.383631479518772E+08, -4.109110561620311E+07,
2461407.500000000, A.D. 2027-Jan-02 00:00:00.0000, -4.687668408337251E+08, -2.469202627553948E+08, -3.990637355719584E+07,
2461414.500000000, A.D. 2027-Jan-09 00:00:00.0000, -4.645025875816717E+08, -2.553974536176415E+08, -3.870872282504220E+07,
2461421.500000000, A.D. 2027-Jan-16 00:00:00.0000, -4.600881049907078E+08, -2.637920564511134E+08, -3.749855344403036E+07,
2461428.500000000, A.D. 2027-Jan-23 00:00:00.0000, -4.555249655698708E+08, -2.721014391952893E+08, -3.627626870003282E+07,
2461435.500000000, A.D. 2027-Jan-30 00:00:00.0000, -4.508147872709173E+08, -2.803230029889138E+08, -3.504227503973067E+07,
2461442.500000000, A.D. 2027-Feb-06 00:00:00.0000, -4.459592320007935E+08, -2.884541831701470E+08, -3.379698201617569E+07,
2461449.500000000, A.D. 2027-Feb-13 00:00:00.0000, -4.409600039340715E+08, -2.964924488841962E+08, -3.254080213881053E+07,
2461456.500000000, A.D. 2027-Feb-20 00:00:00.0000, -4.358188499899083E+08, -3.044353020888655E+08, -3.127415047583939E+07,
2461463.500000000, A.D. 2027-Feb-27 00:00:00.0000, -4.305375610782048E+08, -3.122802791720397E+08, -2.999744439985783E+07,
2461470.500000000, A.D. 2027-Mar-06 00:00:00.0000, -4.251179710979287E+08, -3.200249532591834E+08, -2.871110359677064E+07,
2461477.500000000, A.D. 2027-Mar-13 00:00:00.0000, -4.195619552885567E+08, -3.276669351616670E+08, -2.741555002401292E+07,
2461484.500000000, A.D. 2027-Mar-20 00:00:00.0000, -4.138714290645171E+08, -3.352038738009084E+08, -2.611120778300032E+07,
2461491.500000000, A.D. 2027-Mar-27 00:00:00.0000, -4.080483471314006E+08, -3.426334566578524E+08, -2.479850296954291E+07,
2461498.500000000, A.D. 2027-Apr-03 00:00:00.0000, -4.020947026821922E+08, -3.499534102959897E+08, -2.347786352502961E+07,
2461505.500000000, A.D. 2027-Apr-10 00:00:00.0000, -3.960125266134584E+08, -3.571615009349325E+08, -2.214971909227391E+07,
2461512.500000000, A.D. 2027-Apr-17 00:00:00.0000, -3.898038867402713E+08, -3.642555350885615E+08, -2.081450087924571E+07,
2461519.500000000, A.D. 2027-Apr-24 00:00:00.0000, -3.834708869311228E+08, -3.712333603294649E+08, -1.947264154300146E+07,
2461526.500000000, A.D. 2027-May-01 00:00:00.0000, -3.770156658633900E+08, -3.780928661514200E+08, -1.812457511896142E+07,
2461533.500000000, A.D. 2027-May-08 00:00:00.0000, -3.704403950919434E+08, -3.848319841810755E+08, -1.677073696250331E+07,
2461540.500000000, A.D. 2027-May-15 00:00:00.0000, -3.637472779274200E+08, -3.914486867849174E+08, -1.541156348761421E+07,
2461547.500000000, A.D. 2027-May-22 00:00:00.0000, -3.569385506874366E+08, -3.979409866631250E+08, -1.404749177099544E+07,
2461554.500000000, A.D. 2027-May-29 00:00:00.0000, -3.500164829649742E+08, -4.043069388995006E+08, -1.267895944949213E+07,
2461561.500000000, A.D. 2027-Jun-05 00:00:00.0000, -3.429833760299688E+08, -4.105446423364658E+08, -1.130640473604065E+07,
2461568.500000000, A.D. 2027-Jun-12 00:00:00.0000, -3.358415613722147E+08, -4.166522398433311E+08, -9.930266334599495E+06,
2461575.500000000, A.D. 2027-Jun-19 00:00:00.0000, -3.285933997167969E+08, -4.226279184127141E+08, -8.550983299984813E+06,
2461582.500000000, A.D. 2027-Jun-26 00:00:00.0000, -3.212412802327775E+08, -4.284699093465546E+08, -7.168994889481723E+06,
2461589.500000000, A.D. 2027-Jul-03 00:00:00.0000, -3.137876198033333E+08, -4.341764885238162E+08, -5.784740417547107E+06,
2461596.500000000, A.D. 2027-Jul-10 00:00:00.0000, -3.062348623210439E+08, -4.397459767415564E+08, -4.398659116094232E+06,
2461603.500000000, A.D. 2027-Jul-17 00:00:00.0000, -2.985854779725811E+08, -4.451767401684843E+08, -3.011190006635487E+06,
2461610.500000000, A.D. 2027-Jul-24 00:00:00.0000, -2.908419623568802E+08, -4.504671909739097E+08, -1.622771803510785E+06,
2461617.500000000, A.D. 2027-Jul-31 00:00:00.0000, -2.830068350257621E+08, -4.556157878965976E+08, -2.338428664517701E+05,
2461624.500000000, A.D. 2027-Aug-07 00:00:00.0000, -2.750826376480132E+08, -4.606210356016508E+08, 1.155158910245091E+06,
2461631.500000000, A.D. 2027-Aug-14 00:00:00.0000, -2.670719340979438E+08, -4.654814830783872E+08, 2.543796462368965E+06,
2461638.500000000, A.D. 2027-Aug-21 00:00:00.0000, -2.589773118499011E+08, -4.701957244435457E+08, 3.931633842573941E+06,
2461645.500000000, A.D. 2027-Aug-28 00:00:00.0000, -2.508013812479683E+08, -4.747624009475670E+08, 5.318236212849200E+06,
2461652.500000000, A.D. 2027-Sep-04 00:00:00.0000, -2.425467738327141E+08, -4.791802016822681E+08, 6.703169855420589E+06,
2461659.500000000, A.D. 2027-Sep-11 00:00:00.0000, -2.342161411207447E+08, -4.834478636512036E+08, 8.086002275858372E+06,
2461666.500000000, A.D. 2027-Sep-18 00:00:00.0000, -2.258121537040388E+08, -4.875641718527168E+08, 9.466302332797974E+06,
2461673.500000000, A.D. 2027-Sep-25 00:00:00.0000, -2.173375004402878E+08, -4.915279594531890E+08, 1.084364036665022E+07,
2461680.500000000, A.D. 2027-Oct-02 00:00:00.0000, -2.087948876593794E+08, -4.953381080229087E+08, 1.221758832238388E+07,
2461687.500000000, A.D. 2027-Oct-09 00:00:00.0000, -2.001870383639510E+08, -4.989935478389713E+08, 1.358771986371967E+07,
2461694.500000000, A.D. 2027-Oct-16 00:00:00.0000, -1.915166913612993E+08, -5.024932583096305E+08, 1.495361046828488E+07,
2461701.500000000, A.D. 2027-Oct-23 00:00:00.0000, -1.827866000669875E+08, -5.058362685249377E+08, 1.631483747926590E+07,
2461708.500000000, A.D. 2027-Oct-30 00:00:00.0000, -1.739995306052566E+08, -5.090216573223677E+08, 1.767098012890014E+07,
2461715.500000000, A.D. 2027-Nov-06 00:00:00.0000, -1.651582603691129E+08, -5.120485517384408E+08, 1.902161973250088E+07,
2461722.500000000, A.D. 2027-Nov-13 00:00:00.0000, -1.562655790246322E+08, -5.149161259221441E+08, 2.036634006519341E+07,
2461729.500000000, A.D. 2027-Nov-20 00:00:00.0000, -1.473242890569396E+08, -5.176236026968734E+08, 2.170472747642890E+07,
2461736.500000000, A.D. 2027-Nov-27 00:00:00.0000, -1.383372042406422E+08, -5.201702548080985E+08, 2.303637083627060E+07,
2461743.500000000, A.D. 2027-Dec-04 00:00:00.0000, -1.293071480592445E+08, -5.225554049438183E+08, 2.436086157392213E+07,
2461750.500000000, A.D. 2027-Dec-11 00:00:00.0000, -1.202369526249446E+08, -5.247784254918524E+08, 2.567779378037328E+07,
2461757.500000000, A.D. 2027-Dec-18 00:00:00.0000, -1.111294578243155E+08, -5.268387383727006E+08, 2.698676432234040E+07,
2461764.500000000, A.D. 2027-Dec-25 00:00:00.0000, -1.019875105380117E+08, -5.287358149496705E+08, 2.828737295344037E+07,
2461771.500000000, A.D. 2028-Jan-01 00:00:00.0000, -9.281396389297436E+07, -5.304691760014143E+08, 2.957922242004254E+07,
$$EOE